BEIDOU 3 (C01)          
1 36287U 10001A   22090.89173506 -.00000296  00000+0  00000+0 0  9996
2 36287   1.9474  48.8036 0003525  16.4112 225.3941  1.00267756 44730
BEIDOU 5 (C06)          
1 36828U 10036A   22091.17004476 -.00000138  00000+0  00000+0 0  9991
2 36828  54.1908 176.9373 0027743 184.9842 357.3368  1.00268580 42800
BEIDOU 6 (C04)          
1 37210U 10057A   22090.53313163 -.00000129  00000+0  00000+0 0  9995
2 37210   1.0308  55.6019 0003337 144.5283 340.6476  1.00270681 41859
BEIDOU 7 (C07)          
1 37256U 10068A   22091.17187346 -.00000194  00000+0  00000+0 0  9992
2 37256  50.3488 290.5676 0018334 182.4347 247.0905  1.00274182 41373
BEIDOU 8 (C08)          
1 37384U 11013A   22090.82587970 -.00000184  00000+0  00000+0 0  9992
2 37384  60.1848  55.0252 0018783 195.2241 345.0762  1.00276365 40241
BEIDOU 9 (C09)          
1 37763U 11038A   22091.19885376 -.00000080  00000+0  00000+0 0  9997
2 37763  54.4719 179.4183 0094880 226.7362 306.7162  1.00293946 39223
BEIDOU 10 (C10)         
1 37948U 11073A   22090.52373059 -.00000144  00000+0  00000+0 0  9998
2 37948  50.4655 290.2078 0077098 217.6202 325.3681  1.00270279 37979
BEIDOU 11 (C05)         
1 38091U 12008A   22090.87542525  .00000043  00000+0  00000+0 0  9998
2 38091   1.3942  65.2831 0014841 322.7118 175.0693  1.00268631 37052
BEIDOU 12 (C11)         
1 38250U 12018A   22090.04834281 -.00000109  00000+0  00000+0 0  9992
2 38250  56.7141 356.1495 0021948 257.8183 305.6044  1.86234437 67626
BEIDOU 13 (C12)         
1 38251U 12018B   22090.48494508 -.00000109  00000+0  00000+0 0  9995
2 38251  56.6317 355.4653 0012579 264.7791 275.6105  1.86234003 67635
BEIDOU 15 (C14)         
1 38775U 12050B   22090.99349179  .00000040  00000+0  00000+0 0  9994
2 38775  55.3541 114.2912 0014912 318.3361  39.5986  1.86231325 65010
BEIDOU 16 (C02)         
1 38953U 12059A   22090.80870337 -.00000190  00000+0  00000+0 0  9993
2 38953   1.7974  84.5180 0013169 291.6258 188.2017  1.00270810 34482
BEIDOU 17 (C31)         
1 40549U 15019A   22090.59519135 -.00000152  00000+0  00000+0 0  9996
2 40549  52.0183 313.6573 0035498 188.5913 354.9342  1.00259033 25656
BEIDOU 18 (C57)         
1 40748U 15037A   22090.68179398 -.00000110  00000+0  00000+0 0  9994
2 40748  55.8871 354.3724 0005641  10.6520 211.2587  1.86233270 45464
BEIDOU 19 (C58)         
1 40749U 15037B   22090.40479990 -.00000109  00000+0  00000+0 0  9994
2 40749  55.8907 354.3721 0006604 335.1438 195.9047  1.86232206 45451
BEIDOU 20 (C18)         
1 40938U 15053A   22090.25204303 -.00000126  00000+0  00000+0 0  9998
2 40938  51.6216 276.7650 0044342 192.5380 265.4008  1.00264027 23928
BEIDOU IGSO-6 (C13)     
1 41434U 16021A   22090.73205038 -.00000142  00000+0  00000+0 0  9993
2 41434  57.9880  53.6343 0043309 220.0959 271.5307  1.00257848 22054
BEIDOU-2 G7 (C03)       
1 41586U 16037A   22090.87808267 -.00000369  00000+0  00000+0 0  9997
2 41586   1.8062  68.5787 0009152 359.5275 187.7634  1.00270367 21361
BEIDOU-3 M1 (C19)       
1 43001U 17069A   22090.43131844  .00000045  00000+0  00000+0 0  9999
2 43001  55.5074 114.2996 0012073 289.1844 208.0367  1.86231607 29941
BEIDOU-3 M2 (C20)       
1 43002U 17069B   22090.24038186  .00000046  00000+0  00000+0 0  9995
2 43002  55.5072 114.3424 0009777 305.5248 106.8174  1.86231423 29931
BEIDOU-3 M3 (C27)       
1 43107U 18003A   22090.90318987 -.00000111  00000+0  00000+0 0  9997
2 43107  55.3357 355.3154 0005574  44.2241 258.5262  1.86232175 28701
BEIDOU-3 M4 (C28)       
1 43108U 18003B   22090.70441976 -.00000111  00000+0  00000+0 0  9991
2 43108  55.3290 355.3118 0002850 278.5984 295.2207  1.86230905 28704
BEIDOU-3 M5 (C21)       
1 43207U 18018A   22090.29441897  .00000046  00000+0  00000+0 0  9999
2 43207  55.4666 114.4211 0007097 320.9592  39.0559  1.86231374 28081
BEIDOU-3 M6 (C22)       
1 43208U 18018B   22090.36104481  .00000045  00000+0  00000+0 0  9992
2 43208  55.4659 114.4235 0010125 296.6800  63.2785  1.86231440 28081
BEIDOU-3 M7 (C29)       
1 43245U 18029A   22090.31985469 -.00000109  00000+0  00000+0 0  9995
2 43245  55.2540 353.1102 0001441   2.6347 179.3929  1.86232539 27231
BEIDOU-3 M8 (C30)       
1 43246U 18029B   22089.90182296 -.00000109  00000+0  10000-3 0  9991
2 43246  55.2507 353.1543 0005329   0.3272 307.8916  1.86232447 27215
BEIDOU IGSO-7 (C16)     
1 43539U 18057A   22089.85220606 -.00000154  00000+0  00000+0 0  9994
2 43539  55.0725 176.4012 0046855 225.0746 204.7882  1.00281876 13722
BEIDOU-3 M9 (C23)       
1 43581U 18062A   22090.74953069 -.00000033  00000+0  00000+0 0  9999
2 43581  54.3015 234.7432 0001788 307.0834  60.2942  1.86231844 24988
BEIDOU-3 M10 (C24)      
1 43582U 18062B   22090.60214237 -.00000033  00000+0  00000+0 0  9992
2 43582  54.3017 234.7378 0005741  22.7217 337.5521  1.86232041 24982
BEIDOU-3 M11 (C25)      
1 43602U 18067A   22090.65852988 -.00000033  00000+0  00000+0 0  9996
2 43602  54.3821 233.3438 0007357  14.4942  65.1198  1.86231464 24474
BEIDOU-3 M12 (C26)      
1 43603U 18067B   22090.67688344 -.00000033  00000+0  00000+0 0  9992
2 43603  54.3793 233.3101 0004461   9.6786 352.6376  1.86231605 24496
BEIDOU-3 M13 (C32)      
1 43622U 18072A   22090.80135433  .00000041  00000+0  00000+0 0  9998
2 43622  55.4331 113.9621 0008641 283.7560 191.5173  1.86231546 24002
BEIDOU-3 M14 (C33)      
1 43623U 18072B   22090.75898704  .00000042  00000+0  00000+0 0  9991
2 43623  55.4349 113.9562 0006458 301.5748 235.5274  1.86231565 24009
BEIDOU-3 M15 (C34)      
1 43647U 18078A   22090.38065184 -.00000109  00000+0  10000-3 0  9990
2 43647  55.1477 353.2719 0007717   4.1145 174.7824  1.86232432 23506
BEIDOU-3 M16 (C35)      
1 43648U 18078B   22090.51763663 -.00000110  00000+0  00000+0 0  9990
2 43648  55.1444 353.2748 0005737   9.5199 169.1663  1.86232214 23520
BEIDOU-3 G1 (C59)       
1 43683U 18085A   22090.96331433 -.00000294  00000+0  00000+0 0  9995
2 43683   0.8417 179.8135 0002653 322.0353 174.2751  1.00269373 12623
BEIDOU-3 M17 (C36)      
1 43706U 18093A   22090.40289495 -.00000034  00000+0  00000+0 0  9991
2 43706  54.3830 234.6347 0007667 276.9691  82.8834  1.86231881 22881
BEIDOU-3 M18 (C37)      
1 43707U 18093B   22090.84547447 -.00000032  00000+0  00000+0 0  9992
2 43707  54.3839 234.6103 0006623 313.2189  74.5115  1.86232097 22889
BEIDOU-3 IGSO-1 (C38)   
1 44204U 19023A   22090.71776337 -.00000215  00000+0  00000+0 0  9990
2 44204  56.4472  53.8038 0020125 205.6779 307.1430  1.00281151 10937
BEIDOU-2 G8             
1 44231U 19027A   22090.82073948 -.00000265  00000+0  00000+0 0  9999
2 44231   0.6789  71.8246 0004369 132.2033  64.9689  1.00266255 10640
BEIDOU-3 IGSO-2 (C39)   
1 44337U 19035A   22090.96357407 -.00000141  00000+0  00000+0 0  9998
2 44337  55.1128 172.4139 0022946 193.3129 289.6238  1.00276776 10277
BEIDOU-3 M23 (C45)      
1 44542U 19061A   22090.87538499 -.00000031  00000+0  00000+0 0  9995
2 44542  54.6092 234.7455 0007630 348.8066  11.1164  1.86231183 17148
BEIDOU-3 M24 (C46)      
1 44543U 19061B   22090.47770468 -.00000034  00000+0  00000+0 0  9999
2 44543  54.6083 234.7285 0004881 349.2706  15.2301  1.86231658 17135
BEIDOU-3 IGSO-3         
1 44709U 19073A   22089.49354822 -.00000157  00000+0  00000+0 0  9994
2 44709  57.3925 297.2000 0020508 172.6105  15.1811  1.00280186  9017
BEIDOU-3 M21            
1 44793U 19078A   22090.44872904 -.00000110  00000+0  10000-3 0  9999
2 44793  54.9968 353.3028 0007579   6.2406 172.3275  1.86232204 15999
BEIDOU-3 M22            
1 44794U 19078B   22090.57896529 -.00000110  00000+0  00000+0 0  9998
2 44794  54.9712 353.2908 0005489   2.3513 175.0495  1.86232681 15990
BEIDOU-3 M19            
1 44864U 19090A   22090.82605979  .00000041  00000+0  00000+0 0  9997
2 44864  55.3675 114.1770 0018669 269.7004 267.8723  1.86231861 15588
BEIDOU-3 M20            
1 44865U 19090B   22090.69217793  .00000042  00000+0  00000+0 0  9997
2 44865  55.3699 114.2127 0017010 282.9226 254.7678  1.86231798 15554
BEIDOU-3 G2             
1 45344U 20017A   22090.73049240 -.00000160  00000+0  00000+0 0  9998
2 45344   2.1237 348.2824 0003107  81.3421 102.4364  1.00272639  7836
BEIDOU-3 G3             
1 45807U 20040A   22091.02933846 -.00000371  00000+0  00000+0 0  9999
2 45807   1.6191 301.3699 0007203 345.4326  23.6699  1.00270164  6668
